SatCatId,ObjectName,LaunchYear,OrbitalPeriod,LaunchMass,StatusCode,Inclination,Status,UcsData,OrbitClassEstimated,LaunchSiteCountry,Owner,UseType,Purpose,LaunchVehicleClass,TLE1,TLE2,MeanMotion,Eccentricity,OrbitClass
56107,STARLINK-6030,2023,95.84,290.0,+,43.0,Active,1,LEO,USA,USA,Commercial,Communications,Falcon,1 56107U 23046Q   25170.23285176  .00000116  00000+0  23629-4 0  9996,2 56107  43.0033 150.2900 0001252 279.6721  80.3980 15.02538053122437,15.02538053,0.0001252,LEO
56108,STARLINK-6081,2023,95.84,290.0,+,43.0,Active,1,LEO,USA,USA,Commercial,Communications,Falcon,1 56108U 23046R   25170.31376862  .00000647  00000+0  62964-4 0  9993,2 56108  43.0024 150.0375 0001183 273.6112  86.4595 15.02538488122445,15.02538488,0.0001183,LEO
56109,STARLINK-6083,2023,95.84,290.0,+,43.0,Active,1,LEO,USA,USA,Commercial,Communications,Falcon,1 56109U 23046S   25170.23618361  .00000164  00000+0  27203-4 0  9999,2 56109  43.0025 150.3149 0001271 284.4200  75.6501 15.02537386122437,15.02537386,0.0001271,LEO
56110,STARLINK-6082,2023,95.84,290.0,+,43.0,Active,1,LEO,USA,USA,Commercial,Communications,Falcon,1 56110U 23046T   25170.24173547 -.00000104  00000+0  73830-5 0  9997,2 56110  43.0025 150.3603 0000766 292.0607  68.0154 15.02535585122437,15.02535585,7.66e-05,LEO
56111,STARLINK-6084,2023,95.84,290.0,+,43.0,Active,1,LEO,USA,USA,Commercial,Communications,Falcon,1 56111U 23046U   25169.95584190  .00000111  00000+0  23300-4 0  9997,2 56111  43.0019 151.6516 0001182 276.7840  83.2868 15.02536366122393,15.02536366,0.0001182,LEO
56112,STARLINK-6080,2023,95.84,290.0,+,43.0,Active,1,LEO,USA,USA,Commercial,Communications,Falcon,1 56112U 23046V   25170.36025930 -.00000276  00000+0 -53834-5 0  9997,2 56112  43.0024 149.5267 0000879 275.2639  84.8103 15.02535622122451,15.02535622,8.79e-05,LEO
56113,STARLINK-6113,2023,95.84,290.0,+,43.0,Active,1,LEO,USA,USA,Commercial,Communications,Falcon,1 56113U 23046W   25170.21732038  .00000105  00000+0  22866-4 0  9995,2 56113  43.0023 150.1755 0001343 291.4150  68.6549 15.02543704122438,15.02543704,0.0001343,LEO
56115,STARLINK-6101,2023,95.84,290.0,+,43.0,Active,1,LEO,USA,USA,Commercial,Communications,Falcon,1 56115U 23046Y   25170.34583114 -.00000090  00000+0  83844-5 0  9998,2 56115  43.0030 149.4203 0001283 280.2226  79.8471 15.02536870122456,15.0253687,0.0001283,LEO
56116,STARLINK-6114,2023,95.84,290.0,+,43.0,Active,1,LEO,USA,USA,Commercial,Communications,Falcon,1 56116U 23046Z   25170.35693037 -.00000266  00000+0 -46036-5 0  9994,2 56116  43.0023 149.5030 0001328 279.0230  81.0462 15.02536700122456,15.025367,0.0001328,LEO
56117,STARLINK-6107,2023,95.84,290.0,+,43.0,Active,1,LEO,USA,USA,Commercial,Communications,Falcon,1 56117U 23046AA  25170.33400270  .00000051  00000+0  18866-4 0  9997,2 56117  43.0023 137.2164 0001179 290.8828  69.1888 15.02536948122595,15.02536948,0.0001179,LEO
56118,STARLINK-6105,2023,94.0,290.0,P,43.0,Active,1,LEO,USA,USA,Commercial,Communications,Falcon,1 56118U 23046AB  25170.27660246  .00007267  00000+0  23928-3 0  9992,2 56118  43.0006 131.9099 0000949 277.3843  82.6903 15.31939964122658,15.31939964,9.49e-05,LEO
56119,STARLINK-6091,2023,95.84,290.0,+,43.0,Active,1,LEO,USA,USA,Commercial,Communications,Falcon,1 56119U 23046AC  25170.60989999  .00000814  00000+0  75288-4 0  9997,2 56119  43.0033 135.8458 0001592 298.8819  61.1863 15.02541539123177,15.02541539,0.0001592,LEO
56120,STARLINK-6079,2023,95.84,290.0,+,43.0,Active,1,LEO,USA,USA,Commercial,Communications,Falcon,1 56120U 23046AD  25170.21880449  .00000160  00000+0  26910-4 0  9998,2 56120  43.0027 138.0675 0001033 273.0699  87.0025 15.02534045122573,15.02534045,0.0001033,LEO
56121,STARLINK-6092,2023,95.84,290.0,+,43.0,Active,1,LEO,USA,USA,Commercial,Communications,Falcon,1 56121U 23046AE  25170.28084185  .00000252  00000+0  33702-4 0  9998,2 56121  43.0030 137.6769 0001590 270.7578  89.3082 15.02534544122588,15.02534544,0.000159,LEO
56122,STARLINK-6094,2023,95.84,290.0,+,43.0,Active,1,LEO,USA,USA,Commercial,Communications,Falcon,1 56122U 23046AF  25169.02182230  .00000559  00000+0  56442-4 0  9995,2 56122  43.0026 156.6846 0001394 283.6503  76.4184 15.02538142122256,15.02538142,0.0001394,LEO
56123,STARLINK-6115,2023,95.84,290.0,+,43.0,Active,1,LEO,USA,USA,Commercial,Communications,Falcon,1 56123U 23046AH  25170.60101972  .00000381  00000+0  43268-4 0  9991,2 56123  43.0032 135.7774 0001210 276.2774  83.7930 15.02536352122630,15.02536352,0.000121,LEO
56124,STARLINK-6126,2023,95.84,290.0,+,43.0,Active,1,LEO,USA,USA,Commercial,Communications,Falcon,1 56124U 23046AJ  25170.28197702 -.00002261  00000+0 -15247-3 0  9998,2 56124  43.0014 137.6833 0001951 291.5537  68.5098 15.02511308122581,15.02511308,0.0001951,LEO
56125,STARLINK-6119,2023,95.84,290.0,+,43.0,Active,1,LEO,USA,USA,Commercial,Communications,Falcon,1 56125U 23046AK  25170.27195974  .00000339  00000+0  40162-4 0  9994,2 56125  43.0025 137.6047 0001263 289.1420  70.9285 15.02537537122588,15.02537537,0.0001263,LEO
56126,STARLINK-6124,2023,95.84,290.0,+,43.0,Active,1,LEO,USA,USA,Commercial,Communications,Falcon,1 56126U 23046AL  25170.59769162  .00000513  00000+0  53027-4 0  9994,2 56126  43.0018 135.7524 0001127 274.6056  85.4658 15.02533556122631,15.02533556,0.0001127,LEO
56127,STARLINK-6104,2023,95.84,290.0,+,43.0,Active,1,LEO,USA,USA,Commercial,Communications,Falcon,1 56127U 23046AM  25170.58993273 -.00002142  00000+0 -14353-3 0  9996,2 56127  43.0020 135.6883 0000773 274.4975  85.5779 15.02535265123170,15.02535265,7.73e-05,LEO
56128,STARLINK-6122,2023,95.84,290.0,+,43.0,Active,1,LEO,USA,USA,Commercial,Communications,Falcon,1 56128U 23046AN  25170.27418714 -.00000742  00000+0 -39869-4 0  9999,2 56128  43.0030 137.6221 0001207 277.1499  82.9206 15.02530896122589,15.02530896,0.0001207,LEO
56129,STARLINK-6121,2023,95.84,290.0,+,43.0,Active,1,LEO,USA,USA,Commercial,Communications,Falcon,1 56129U 23046AP  25170.46134411  .00000178  00000+0  28259-4 0  9992,2 56129  43.0044  84.5501 0001042 271.0546  89.0177 15.02534990123214,15.0253499,0.0001042,LEO
56130,STARLINK-6117,2023,95.84,290.0,+,43.0,Active,1,LEO,USA,USA,Commercial,Communications,Falcon,1 56130U 23046AQ  25170.59436450 -.00000046  00000+0  11677-4 0  9997,2 56130  43.0022 135.7269 0001183 270.8118  89.2588 15.02536392122631,15.02536392,0.0001183,LEO
56131,STARLINK-6120,2023,95.84,290.0,+,43.0,Active,1,LEO,USA,USA,Commercial,Communications,Falcon,1 56131U 23046AR  25170.24754757 -.00000342  00000+0 -10223-4 0  9999,2 56131  43.0020 137.4195 0001091 276.5836  83.4882 15.02533105122581,15.02533105,0.0001091,LEO
56132,STARLINK-6071,2023,95.84,290.0,+,43.0,Active,1,LEO,USA,USA,Commercial,Communications,Falcon,1 56132U 23046AS  25170.59104471  .00000696  00000+0  66620-4 0  9992,2 56132  43.0028 135.7042 0001230 278.0826  81.9877 15.02530276122632,15.02530276,0.000123,LEO
56133,STARLINK-5566,2023,95.84,290.0,+,43.0,Active,1,LEO,USA,USA,Commercial,Communications,Falcon,1 56133U 23046AT  25170.30403030  .00000232  00000+0  32281-4 0  9997,2 56133  43.0025 136.9844 0001174 285.9720  74.0993 15.02535623122598,15.02535623,0.0001174,LEO
56134,STARLINK-5564,2023,95.84,290.0,+,43.0,Active,1,LEO,USA,USA,Commercial,Communications,Falcon,1 56134U 23046AU  25170.58770367  .00000401  00000+0  44730-4 0  9998,2 56134  43.0023 135.6766 0001097 278.2345  81.8373 15.02532830123178,15.0253283,0.0001097,LEO
56136,STARLINK-5489,2023,95.84,290.0,+,43.0,Active,1,LEO,USA,USA,Commercial,Communications,Falcon,1 56136U 23046AW  25170.58326195 -.00000083  00000+0  89118-5 0  9993,2 56136  43.0027 135.6374 0001034 271.1818  88.8906 15.02535592122634,15.02535592,0.0001034,LEO
56137,STARLINK-5090,2023,95.84,290.0,+,43.0,Active,1,LEO,USA,USA,Commercial,Communications,Falcon,1 56137U 23046AX  25170.29515201  .00000024  00000+0  16816-4 0  9998,2 56137  43.0026 136.9132 0001169 273.3067  86.7641 15.02536496122591,15.02536496,0.0001169,LEO
56138,STARLINK-4774,2023,95.84,290.0,+,43.0,Active,1,LEO,USA,USA,Commercial,Communications,Falcon,1 56138U 23046AY  25170.24421437 -.00000465  00000+0 -19329-4 0  9994,2 56138  43.0034 137.3981 0001327 299.4618  60.6092 15.02534150122580,15.0253415,0.0001327,LEO
56140,STARLINK-5375,2023,95.84,290.0,+,43.0,Active,1,LEO,USA,USA,Commercial,Communications,Falcon,1 56140U 23046BA  25170.30847517 -.00000142  00000+0  45949-5 0  9994,2 56140  43.0029 137.0210 0001370 281.1599  78.9089 15.02545504122597,15.02545504,0.000137,LEO
56141,STARLINK-5377,2023,95.84,290.0,+,43.01,Active,1,LEO,USA,USA,Commercial,Communications,Falcon,1 56141U 23046BB  25170.29405171 -.00000567  00000+0 -26930-4 0  9999,2 56141  43.0055 136.9095 0001490 276.9545  83.1127 15.02526796122595,15.02526796,0.000149,LEO
56142,STARLINK-5376,2023,95.84,290.0,+,43.0,Active,1,LEO,USA,USA,Commercial,Communications,Falcon,1 56142U 23046BC  25170.17216914  .00000889  00000+0  80882-4 0  9993,2 56142  43.0026 137.7108 0000170 161.8715 198.2133 15.02537077122570,15.02537077,1.7e-05,LEO
56143,STARLINK-5016,2023,95.84,290.0,+,43.0,Active,1,LEO,USA,USA,Commercial,Communications,Falcon,1 56143U 23046BD  25170.28849282 -.00000104  00000+0  73878-5 0  9995,2 56143  43.0032 136.8659 0001124 265.9790  94.0924 15.02534609122599,15.02534609,0.0001124,LEO
56144,STARLINK-5374,2023,95.84,290.0,+,43.0,Active,1,LEO,USA,USA,Commercial,Communications,Falcon,1 56144U 23046BE  25170.63420124 -.00000178  00000+0  18690-5 0  9997,2 56144  43.0030 135.1613 0001169 287.5891  72.4823 15.02535824123185,15.02535824,0.0001169,LEO
56146,STARLINK-5111,2023,95.84,290.0,+,43.0,Active,1,LEO,USA,USA,Commercial,Communications,Falcon,1 56146U 23046BG  25170.29071300 -.00000381  00000+0 -13151-4 0  9992,2 56146  43.0025 136.8858 0001113 280.1260  79.9457 15.02534238122595,15.02534238,0.0001113,LEO
